STARLINK-3644           
1 51987U 22025AH  26068.31724862 -.00000535  00000+0 -15496-4 0  9999
2 51987  53.2181  40.7930 0001433  87.4978 272.6179 15.08844044221006
LEMUR-2-STELLA          
1 60533U 24149BT  26068.72657350  .00013685  00000+0  85776-3 0  9992
2 60533  97.6764 150.9122 0001299  95.1117 265.0260 15.09464064 85488
